DELTA 2 R/B             
1 25876U 99041E   19352.40066818 -.00000195  00000-0  74015-5 0  9992
2 25876  51.7654 308.9854 0531164 173.1895 187.6633 14.04379096 43069
HELIOS 1B               
1 25977U 99064A   19352.45440690  .00000045  00000-0  12676-4 0  9995
2 25977  98.2558 136.2792 0001293 151.6455 208.4827 14.82450960 79456
TERRA                   
1 25994U 99068A   19352.40199737  .00000101  00000-0  32529-4 0  9998
2 25994  98.2110  64.2221 0000974 111.4219 248.7086 14.57112095 63805
SL-16 R/B               
1 26070U 00006B   19351.83996693 -.00000033  00000-0  74260-5 0  9994
2 26070  70.9997 196.9927 0015093  36.2468 323.9674 14.15458882 26792
TITAN 4B R/B            
1 26474U 00047B   19351.91956727  .00000017  00000-0  12422-4 0  9992
2 26474  67.9929 218.1094 0053023  33.9897 326.4623 14.95893457 51944
ENVISAT                 
1 27386U 02009A   19352.55541274 -.00000011  00000-0  97546-5 0  9999
2 27386  98.1408   4.1421 0001314  88.5036  81.4097 14.37966029932470
IDEFIX & ARIANE 42P R/B 
1 27422U 02021B   19352.16172084 -.00000009  00000-0  12639-4 0  9996
2 27422  98.3261 316.0417 0013219  52.8885 307.3504 14.29279568917239
AQUA                    
1 27424U 02022A   19352.15764219  .00000087  00000-0  29399-4 0  9991
2 27424  98.2154 290.3332 0001629 149.4689 267.1352 14.57108651937374
CZ-4B R/B               
1 27432U 02024C   19352.06734928 -.00000021  00000-0  12980-4 0  9993
2 27432  99.0816 346.2281 0050021 331.8824  71.9576 14.14087367907952
MIDORI II (ADEOS-II)    
1 27597U 02056A   19351.86767640  .00000036  00000-0  31957-4 0  9994
2 27597  98.4973 299.2788 0001567 121.3652 238.7683 14.27424133885768
H-2A R/B                
1 27601U 02056E   19352.07463586  .00000038  00000-0  28263-4 0  9994
2 27601  98.2520  31.9901 0073314 100.6302 289.5625 14.31923362888596
CZ-4B R/B               
1 28059U 03049C   19351.99056929  .00000018  00000-0  16075-4 0  9990
2 28059  98.4887 261.4221 0049731 337.7216  22.1818 14.52582798856328
CZ-2C R/B               
1 28222U 04012C   19351.92357800  .00000409  00000-0  28610-4 0  9990
2 28222  97.6522 309.2947 0045873 295.8424 128.9890 15.10238952858480
SL-16 R/B               
1 28353U 04021B   19352.42827901 -.00000203  00000-0 -81623-4 0  9992
2 28353  71.0015 321.0832 0007717 259.0185 101.0069 14.14229367801418
CZ-4B R/B               
1 28415U 04035C   19352.21588864 -.00000036  00000-0  20672-5 0  9996
2 28415  97.6393  30.5243 0050199 252.9821 106.5902 15.06775093836192
CZ-2C R/B               
1 28480U 04046B   19352.08071300 -.00000025  00000-0  56364-5 0  9992
2 28480  98.1057  35.9105 0142766  45.3088 344.7091 14.25712864784457
ARIANE 5 R/B            
1 28499U 04049H   19352.17043009  .00000031  00000-0  11103-4 0  9997
2 28499  98.0537  88.4442 0093087 141.8529 280.0809 14.79998212809177
CZ-2D R/B               
1 28738U 05024B   19352.12039995  .00000093  00000-0  90852-5 0  9998
2 28738  97.3989  15.5780 0013614  93.6084 266.6704 15.11926528793871
SUZAKU (ASTRO-EII)      
1 28773U 05025A   19352.07674072  .00000670  00000-0  28466-4 0  9995
2 28773  31.3817 122.3205 0004377 174.4365 185.6331 15.17309081796215
ALOS (DAICHI)           
1 28931U 06002A   19352.51827705  .00000083  00000-0  24799-4 0  9992
2 28931  97.8307 342.3418 0001237  24.2384 335.8870 14.62666038741109
H-2A R/B                
1 28932U 06002B   19351.91731601  .00000063  00000-0  12289-4 0  9994
2 28932  98.3042 326.8766 0088388 197.9641 215.2080 14.92104297753925
AKARI (ASTRO-F)         
1 28939U 06005A   19351.97840762  .00001518  00000-0  43889-4 0  9995
2 28939  98.2098 300.5307 0094093 241.9277 117.2426 15.33389019752946
RESURS-DK 1             
1 29228U 06021A   19352.40236205  .00000044  00000-0  10636-4 0  9992
2 29228  69.9359 291.4348 0004633 339.5178  20.5796 15.02493497745402
GENESIS 1               
1 29252U 06029A   19352.06166482  .00000319  00000-0  25729-4 0  9992
2 29252  64.5192 178.0470 0029106 204.0884 155.8880 15.17956304740490
CZ-4B R/B               
1 29507U 06046C   19351.84290773 -.00000119  00000-0 -42796-5 0  9994
2 29507  97.7486   9.3044 0050942  61.2503 299.3825 15.00461190717980
CZ-2C R/B               
1 31114U 07010B   19352.14122563 -.00000009  00000-0  14056-4 0  9992
2 31114  98.2820 212.0062 0060865  78.5943 282.2063 14.19303575657161
COSMO-SKYMED 1          
1 31598U 07023A   19352.46948153 -.00000007  00000-0  57106-5 0  9990
2 31598  97.8835 173.2684 0001398  93.4122 266.7273 14.82153051677879
GENESIS 2               
1 31789U 07028A   19351.91172861  .00000317  00000-0  25964-4 0  9990
2 31789  64.5028 219.7724 0053222 264.2815  95.2238 15.17098173687472
COSMOS 2428             
1 31792U 07029A   19352.40773823 -.00000204  00000-0 -84373-4 0  9991
2 31792  70.9297 295.1325 0010284 334.3561  25.7048 14.12408561643163
SL-16 R/B               
1 31793U 07029B   19352.18503569  .00000051  00000-0  51461-4 0  9995
2 31793  70.9771 269.2362 0002547 262.6342 242.6564 14.14427945643956
KORONAS-FOTON           
1 33504U 09003A   19351.88201129  .00000352  00000-0  16827-4 0  9995
2 33504  82.4429  44.4759 0018997 186.0622 174.0383 15.15526979599838
H-2A R/B                
1 38341U 12025E   19352.12854037  .00000097  00000-0  18864-4 0  9996
2 38341  98.4745 130.6450 0056789  97.8872 262.8791 14.83963522410411
CUSAT 2 & FALCON 9 R/B  
1 39271U 13055G   19352.07599185  .00003011  00000-0  72759-4 0  9999
2 39271  80.9672 102.9184 0594962 358.0809   1.8090 14.46456433324354
SL-4 R/B                
1 39679U 14021B   19351.86737972  .00000116  00000-0  24114-4 0  9994
2 39679  51.6154 234.6478 0172835  33.3078 327.8628 15.06252191311500
ALOS-2                  
1 39766U 14029A   19352.44351876 -.00000171  00000-0 -15973-4 0  9995
2 39766  97.9232  86.6622 0001298  85.2670 274.8716 14.79469028300786
SL-27 R/B               
1 40354U 14084B   19352.50294113  .00000672  00000-0  17794-4 0  9995
2 40354  74.7387  44.4398 0038924 323.7652  36.0924 15.39941555280528
YAOGAN 29               
1 41038U 15069A   19352.42276004  .00000003  00000-0  73089-5 0  9997
2 41038  97.9939 335.8803 0002117  94.6852 265.4602 14.80429125219349
ASTRO-H (HITOMI)        
1 41337U 16012A   19351.96941122  .00000208  00000-0  99367-5 0  9990
2 41337  31.0060  86.7435 0012356  67.4358 292.7583 14.98634319210101
SHENZHOU-11 MODULE      
1 41868U 16061G   19351.83031964  .00017368  00000-0  69492-4 0  9993
2 41868  42.7903 197.0690 0011507 270.9202 159.9871 15.86130915176971
HXMT (HUIYAN)           
1 42758U 17034A   19352.41457600  .00000034  00000-0  15877-4 0  9997
2 42758  43.0198 314.5585 0012231 319.0490 183.8764 15.08718456138373
AEOLUS                  
1 43600U 18066A   19352.51240600  .00020917  00000-0  81945-4 0  9992
2 43600  96.7193 356.6287 0006211  82.0229  75.2672 15.86970646 76510
SAOCOM 1A               
1 43641U 18076A   19352.41009253 -.00000002  00000-0  63017-5 0  9999
2 43641  97.8842 176.1328 0001304  81.5033 278.6327 14.82152084 64633
CREW DRAGON DEMO-1 DEB  
1 44064U 19011B   19351.91385320  .00008123  00000-0  10110-3 0  9990
2 44064  51.6384 154.4907 0004456  91.7983 268.3558 15.60935315 44365
